[Satellite]
VERSION=1.1
NAME=AOBA-VELOX 3
NICKNAME=AOBA-VELOX 3
TLE1=1 41935U 98067KX  17186.13773320  .00011082  00000-0  14069-3 0  9996
TLE2=2 41935  51.6409 304.7535 0005077 341.7657  18.3153 15.59961480 26443
